{
  "type": "FeatureCollection",
  "features": [
    {
      "type": "Feature",
      "properties": {
        "norad_id": 66503,
        "name": "STARLINK-35917",
        "group": "last-30-days",
        "lat": 24.831757679103795,
        "lon": -82.24707868697607,
        "alt_km": 421.42934357965987,
        "timestamp": "2025-12-12T07:43:19.257327+00:00",
        "meta_object_name": "STARLINK-35917",
        "meta_object_id": "2025-263U",
        "meta_epoch": "2025-12-11T20:00:01.999872",
        "meta_mean_motion": 15.49488372,
        "meta_eccentricity": 0.0001435,
        "meta_inclination": 43.0003,
        "meta_ra_of_asc_node": 130.3745,
        "meta_arg_of_pericenter": 271.7266,
        "meta_mean_anomaly": 24.491,
        "meta_ephemeris_type": 0,
        "meta_classification_type": "U",
        "meta_norad_cat_id": 66503,
        "meta_element_set_no": 999,
        "meta_rev_at_epoch": 549,
        "meta_bstar": -0.040073527,
        "meta_mean_motion_dot": -0.0201763,
        "meta_mean_motion_ddot": 0,
        "tle_line1": "1 66503U 25263U   25345.83335648 -.02017630  00000+0 -40074-1 0  9993",
        "tle_line2": "2 66503  43.0003 130.3745 0001435 271.7266  24.4910 15.49488372  5498"
      },
      "geometry": {
        "type": "Point",
        "coordinates": [
          -82.24707868697607,
          24.831757679103795
        ]
      }
    },
    {
      "type": "Feature",
      "properties": {
        "norad_id": 66504,
        "name": "STARLINK-35916",
        "group": "last-30-days",
        "lat": -37.4642576854763,
        "lon": 4.363723846708201,
        "alt_km": 445.7176585872121,
        "timestamp": "2025-12-12T07:43:19.257338+00:00",
        "meta_object_name": "STARLINK-35916",
        "meta_object_id": "2025-263V",
        "meta_epoch": "2025-12-11T18:13:29.701056",
        "meta_mean_motion": 15.40730519,
        "meta_eccentricity": 0.00019694,
        "meta_inclination": 43.0002,
        "meta_ra_of_asc_node": 132.2825,
        "meta_arg_of_pericenter": 261.4759,
        "meta_mean_anomaly": 98.5874,
        "meta_ephemeris_type": 0,
        "meta_classification_type": "U",
        "meta_norad_cat_id": 66504,
        "meta_element_set_no": 999,
        "meta_rev_at_epoch": 539,
        "meta_bstar": 0.0008844206,
        "meta_mean_motion_dot": 0.00036858,
        "meta_mean_motion_ddot": 0,
        "tle_line1": "1 66504U 25263V   25345.75937154  .00036858  00000+0  88442-3 0  9997",
        "tle_line2": "2 66504  43.0002 132.2825 0001969 261.4759  98.5874 15.40730519  5397"
      },
      "geometry": {
        "type": "Point",
        "coordinates": [
          4.363723846708201,
          -37.4642576854763
        ]
      }
    },
    {
      "type": "Feature",
      "properties": {
        "norad_id": 66505,
        "name": "STARLINK-34766",
        "group": "last-30-days",
        "lat": 26.833466693826946,
        "lon": -85.34287945836778,
        "alt_km": 411.62797202628917,
        "timestamp": "2025-12-12T07:43:19.257348+00:00",
        "meta_object_name": "STARLINK-34766",
        "meta_object_id": "2025-263W",
        "meta_epoch": "2025-12-11T20:00:01.999872",
        "meta_mean_motion": 15.50552281,
        "meta_eccentricity": 0.00012868,
        "meta_inclination": 43.0006,
        "meta_ra_of_asc_node": 130.3926,
        "meta_arg_of_pericenter": 280.5602,
        "meta_mean_anomaly": 8.4639,
        "meta_ephemeris_type": 0,
        "meta_classification_type": "U",
        "meta_norad_cat_id": 66505,
        "meta_element_set_no": 999,
        "meta_rev_at_epoch": 549,
        "meta_bstar": -0.00033306969,
        "meta_mean_motion_dot": -0.00019813,
        "meta_mean_motion_ddot": 0,
        "tle_line1": "1 66505U 25263W   25345.83335648 -.00019813  00000+0 -33307-3 0  9991",
        "tle_line2": "2 66505  43.0006 130.3926 0001286 280.5602   8.4639 15.50552281  5493"
      },
      "geometry": {
        "type": "Point",
        "coordinates": [
          -85.34287945836778,
          26.833466693826946
        ]
      }
    },
    {
      "type": "Feature",
      "properties": {
        "norad_id": 66506,
        "name": "STARLINK-34765",
        "group": "last-30-days",
        "lat": 25.73974415408317,
        "lon": -83.62572510116192,
        "alt_km": 411.80726111065724,
        "timestamp": "2025-12-12T07:43:19.257361+00:00",
        "meta_object_name": "STARLINK-34765",
        "meta_object_id": "2025-263X",
        "meta_epoch": "2025-12-11T22:00:01.999584",
        "meta_mean_motion": 15.50484594,
        "meta_eccentricity": 0.0001562,
        "meta_inclination": 43.0001,
        "meta_ra_of_asc_node": 129.9007,
        "meta_arg_of_pericenter": 282.8839,
        "meta_mean_anomaly": 113.7657,
        "meta_ephemeris_type": 0,
        "meta_classification_type": "U",
        "meta_norad_cat_id": 66506,
        "meta_element_set_no": 999,
        "meta_rev_at_epoch": 550,
        "meta_bstar": 0.0020618251,
        "meta_mean_motion_dot": 0.00122109,
        "meta_mean_motion_ddot": 0,
        "tle_line1": "1 66506U 25263X   25345.91668981  .00122109  00000+0  20618-2 0  9991",
        "tle_line2": "2 66506  43.0001 129.9007 0001562 282.8839 113.7657 15.50484594  5500"
      },
      "geometry": {
        "type": "Point",
        "coordinates": [
          -83.62572510116192,
          25.73974415408317
        ]
      }
    },
    {
      "type": "Feature",
      "properties": {
        "norad_id": 66507,
        "name": "STARLINK-34767",
        "group": "last-30-days",
        "lat": 31.952822067796678,
        "lon": -94.45762234725792,
        "alt_km": 428.95965884931957,
        "timestamp": "2025-12-12T07:43:19.257372+00:00",
        "meta_object_name": "STARLINK-34767",
        "meta_object_id": "2025-263Y",
        "meta_epoch": "2025-12-11T22:00:01.999584",
        "meta_mean_motion": 15.46229927,
        "meta_eccentricity": 0.00016269,
        "meta_inclination": 43.0002,
        "meta_ra_of_asc_node": 129.9092,
        "meta_arg_of_pericenter": 276.4317,
        "meta_mean_anomaly": 116.4894,
        "meta_ephemeris_type": 0,
        "meta_classification_type": "U",
        "meta_norad_cat_id": 66507,
        "meta_element_set_no": 999,
        "meta_rev_at_epoch": 550,
        "meta_bstar": -0.045140544,
        "meta_mean_motion_dot": -0.02025393,
        "meta_mean_motion_ddot": 0,
        "tle_line1": "1 66507U 25263Y   25345.91668981 -.02025393  00000+0 -45141-1 0  9990",
        "tle_line2": "2 66507  43.0002 129.9092 0001626 276.4317 116.4894 15.46229927  5502"
      },
      "geometry": {
        "type": "Point",
        "coordinates": [
          -94.45762234725792,
          31.952822067796678
        ]
      }
    },
    {
      "type": "Feature",
      "properties": {
        "norad_id": 66508,
        "name": "STARLINK-35608",
        "group": "last-30-days",
        "lat": 20.00076774046805,
        "lon": -75.4855057869607,
        "alt_km": 413.71354890238945,
        "timestamp": "2025-12-12T07:43:19.257382+00:00",
        "meta_object_name": "STARLINK-35608",
        "meta_object_id": "2025-263Z",
        "meta_epoch": "2025-12-11T22:00:01.999584",
        "meta_mean_motion": 15.50783828,
        "meta_eccentricity": 0.00013338,
        "meta_inclination": 43.0001,
        "meta_ra_of_asc_node": 129.8761,
        "meta_arg_of_pericenter": 282.0493,
        "meta_mean_anomaly": 124.1307,
        "meta_ephemeris_type": 0,
        "meta_classification_type": "U",
        "meta_norad_cat_id": 66508,
        "meta_element_set_no": 999,
        "meta_rev_at_epoch": 550,
        "meta_bstar": -0.012875684,
        "meta_mean_motion_dot": -0.00696928,
        "meta_mean_motion_ddot": 0,
        "tle_line1": "1 66508U 25263Z   25345.91668981 -.00696928  00000+0 -12876-1 0  9996",
        "tle_line2": "2 66508  43.0001 129.8761 0001333 282.0493 124.1307 15.50783828  5502"
      },
      "geometry": {
        "type": "Point",
        "coordinates": [
          -75.4855057869607,
          20.00076774046805
        ]
      }
    },
    {
      "type": "Feature",
      "properties": {
        "norad_id": 66509,
        "name": "STARLINK-35598",
        "group": "last-30-days",
        "lat": 14.980832615239269,
        "lon": -69.20244333569146,
        "alt_km": 413.32520771269355,
        "timestamp": "2025-12-12T07:43:19.257392+00:00",
        "meta_object_name": "STARLINK-35598",
        "meta_object_id": "2025-263AA",
        "meta_epoch": "2025-12-11T20:00:01.999872",
        "meta_mean_motion": 15.50529319,
        "meta_eccentricity": 0.0001454,
        "meta_inclination": 43.0003,
        "meta_ra_of_asc_node": 130.3427,
        "meta_arg_of_pericenter": 281.8482,
        "meta_mean_anomaly": 26.345,
        "meta_ephemeris_type": 0,
        "meta_classification_type": "U",
        "meta_norad_cat_id": 66509,
        "meta_element_set_no": 999,
        "meta_rev_at_epoch": 549,
        "meta_bstar": 0.00045643118,
        "meta_mean_motion_dot": 0.00026478,
        "meta_mean_motion_ddot": 0,
        "tle_line1": "1 66509U 25263AA  25345.83335648  .00026478  00000+0  45643-3 0  9994",
        "tle_line2": "2 66509  43.0003 130.3427 0001454 281.8482  26.3450 15.50529319  5493"
      },
      "geometry": {
        "type": "Point",
        "coordinates": [
          -69.20244333569146,
          14.980832615239269
        ]
      }
    }
  ]
}